{
  "type": "FeatureCollection",
  "features": [
    {
      "type": "Feature",
      "properties": {
        "norad_id": 44334,
        "name": "EUTELSAT 7C",
        "group": "eutelsat",
        "lat": -0.045818711070762325,
        "lon": 69.71372345749046,
        "alt_km": 35799.553467282814,
        "timestamp": "2025-12-13T22:39:29.380071+00:00",
        "meta_object_name": "EUTELSAT 7C",
        "meta_object_id": "2019-034B",
        "meta_epoch": "2025-12-12T20:21:46.603584",
        "meta_mean_motion": 1.00271857,
        "meta_eccentricity": 0.00032214,
        "meta_inclination": 0.0717,
        "meta_ra_of_asc_node": 176.4232,
        "meta_arg_of_pericenter": 67.4743,
        "meta_mean_anomaly": 150.3191,
        "meta_ephemeris_type": 0,
        "meta_classification_type": "U",
        "meta_norad_cat_id": 44334,
        "meta_element_set_no": 999,
        "meta_rev_at_epoch": 496,
        "meta_bstar": 0,
        "meta_mean_motion_dot": 6.1e-07,
        "meta_mean_motion_ddot": 0,
        "tle_line1": "1 44334U 19034B   25346.84845606  .00000061  00000+0  00000+0 0  9991",
        "tle_line2": "2 44334   0.0717 176.4232 0003221  67.4743 150.3191  1.00271857  4969"
      },
      "geometry": {
        "type": "Point",
        "coordinates": [
          69.71372345749046,
          -0.045818711070762325
        ]
      }
    },
    {
      "type": "Feature",
      "properties": {
        "norad_id": 44624,
        "name": "EUTELSAT 5 WEST B",
        "group": "eutelsat",
        "lat": 0.07677759394060779,
        "lon": 57.74932411561666,
        "alt_km": 35798.68188561686,
        "timestamp": "2025-12-13T22:39:29.380083+00:00",
        "meta_object_name": "EUTELSAT 5 WEST B",
        "meta_object_id": "2019-067A",
        "meta_epoch": "2025-12-13T04:51:58.605696",
        "meta_mean_motion": 1.00272027,
        "meta_eccentricity": 0.00033108,
        "meta_inclination": 0.062,
        "meta_ra_of_asc_node": 350.2117,
        "meta_arg_of_pericenter": 272.6359,
        "meta_mean_anomaly": 247.2845,
        "meta_ephemeris_type": 0,
        "meta_classification_type": "U",
        "meta_norad_cat_id": 44624,
        "meta_element_set_no": 999,
        "meta_rev_at_epoch": 2257,
        "meta_bstar": 0,
        "meta_mean_motion_dot": -2.8e-07,
        "meta_mean_motion_ddot": 0,
        "tle_line1": "1 44624U 19067A   25347.20276164 -.00000028  00000+0  00000+0 0  9991",
        "tle_line2": "2 44624   0.0620 350.2117 0003310 272.6359 247.2845  1.00272027 22579"
      },
      "geometry": {
        "type": "Point",
        "coordinates": [
          57.74932411561666,
          0.07677759394060779
        ]
      }
    },
    {
      "type": "Feature",
      "properties": {
        "norad_id": 45027,
        "name": "EUTELSAT KONNECT",
        "group": "eutelsat",
        "lat": -0.007665083535437262,
        "lon": 69.93444232907962,
        "alt_km": 35791.93884027981,
        "timestamp": "2025-12-13T22:39:29.380096+00:00",
        "meta_object_name": "EUTELSAT KONNECT",
        "meta_object_id": "2020-005B",
        "meta_epoch": "2025-12-13T04:55:20.784288",
        "meta_mean_motion": 1.00268485,
        "meta_eccentricity": 0.00014754,
        "meta_inclination": 0.0695,
        "meta_ra_of_asc_node": 96.5414,
        "meta_arg_of_pericenter": 190.4624,
        "meta_mean_anomaly": 236.1731,
        "meta_ephemeris_type": 0,
        "meta_classification_type": "U",
        "meta_norad_cat_id": 45027,
        "meta_element_set_no": 999,
        "meta_rev_at_epoch": 2247,
        "meta_bstar": 0,
        "meta_mean_motion_dot": 6.3e-07,
        "meta_mean_motion_ddot": 0,
        "tle_line1": "1 45027U 20005B   25347.20510167  .00000063  00000+0  00000+0 0  9995",
        "tle_line2": "2 45027   0.0695  96.5414 0001475 190.4624 236.1731  1.00268485 22474"
      },
      "geometry": {
        "type": "Point",
        "coordinates": [
          69.93444232907962,
          -0.007665083535437262
        ]
      }
    },
    {
      "type": "Feature",
      "properties": {
        "norad_id": 49056,
        "name": "EUTELSAT QUANTUM",
        "group": "eutelsat",
        "lat": 0.03216868915052377,
        "lon": 110.4287077190488,
        "alt_km": 35800.322748430524,
        "timestamp": "2025-12-13T22:39:29.380107+00:00",
        "meta_object_name": "EUTELSAT QUANTUM",
        "meta_object_id": "2021-069B",
        "meta_epoch": "2025-12-13T05:06:42.196032",
        "meta_mean_motion": 1.00273002,
        "meta_eccentricity": 0.00036011,
        "meta_inclination": 0.0237,
        "meta_ra_of_asc_node": 41.9339,
        "meta_arg_of_pericenter": 233.0027,
        "meta_mean_anomaly": 291.5908,
        "meta_ephemeris_type": 0,
        "meta_classification_type": "U",
        "meta_norad_cat_id": 49056,
        "meta_element_set_no": 999,
        "meta_rev_at_epoch": 1606,
        "meta_bstar": 0,
        "meta_mean_motion_dot": 1.39e-06,
        "meta_mean_motion_ddot": 0,
        "tle_line1": "1 49056U 21069B   25347.21298838  .00000139  00000+0  00000+0 0  9995",
        "tle_line2": "2 49056   0.0237  41.9339 0003601 233.0027 291.5908  1.00273002 16066"
      },
      "geometry": {
        "type": "Point",
        "coordinates": [
          110.4287077190488,
          0.03216868915052377
        ]
      }
    },
    {
      "type": "Feature",
      "properties": {
        "norad_id": 53765,
        "name": "EUTELSAT KONNECT VHTS",
        "group": "eutelsat",
        "lat": -0.014307676402432535,
        "lon": 65.44924493471919,
        "alt_km": 35796.179645681215,
        "timestamp": "2025-12-13T22:39:29.380120+00:00",
        "meta_object_name": "EUTELSAT KONNECT VHTS",
        "meta_object_id": "2022-110A",
        "meta_epoch": "2025-12-12T23:45:57.918816",
        "meta_mean_motion": 1.00271501,
        "meta_eccentricity": 0.00023835,
        "meta_inclination": 0.0657,
        "meta_ra_of_asc_node": 101.0037,
        "meta_arg_of_pericenter": 141.1037,
        "meta_mean_anomaly": 199.031,
        "meta_ephemeris_type": 0,
        "meta_classification_type": "U",
        "meta_norad_cat_id": 53765,
        "meta_element_set_no": 999,
        "meta_rev_at_epoch": 495,
        "meta_bstar": 0,
        "meta_mean_motion_dot": 3e-07,
        "meta_mean_motion_ddot": 0,
        "tle_line1": "1 53765U 22110A   25346.99025369  .00000030  00000+0  00000+0 0  9996",
        "tle_line2": "2 53765   0.0657 101.0037 0002383 141.1037 199.0310  1.00271501  4959"
      },
      "geometry": {
        "type": "Point",
        "coordinates": [
          65.44924493471919,
          -0.014307676402432535
        ]
      }
    },
    {
      "type": "Feature",
      "properties": {
        "norad_id": 54048,
        "name": "EUTELSAT HOTBIRD 13F",
        "group": "eutelsat",
        "lat": 0.04503017732205061,
        "lon": 75.75680954688379,
        "alt_km": 35783.94756107275,
        "timestamp": "2025-12-13T22:39:29.380132+00:00",
        "meta_object_name": "EUTELSAT HOTBIRD 13F",
        "meta_object_id": "2022-134A",
        "meta_epoch": "2025-12-13T03:14:22.955424",
        "meta_mean_motion": 1.00271144,
        "meta_eccentricity": 0.00023613,
        "meta_inclination": 0.0474,
        "meta_ra_of_asc_node": 293.4876,
        "meta_arg_of_pericenter": 65.1353,
        "meta_mean_anomaly": 145.0433,
        "meta_ephemeris_type": 0,
        "meta_classification_type": "U",
        "meta_norad_cat_id": 54048,
        "meta_element_set_no": 999,
        "meta_rev_at_epoch": 1151,
        "meta_bstar": 0,
        "meta_mean_motion_dot": 1e-06,
        "meta_mean_motion_ddot": 0,
        "tle_line1": "1 54048U 22134A   25347.13498791  .00000100  00000+0  00000+0 0  9995",
        "tle_line2": "2 54048   0.0474 293.4876 0002361  65.1353 145.0433  1.00271144 11510"
      },
      "geometry": {
        "type": "Point",
        "coordinates": [
          75.75680954688379,
          0.04503017732205061
        ]
      }
    },
    {
      "type": "Feature",
      "properties": {
        "norad_id": 54225,
        "name": "EUTELSAT HOTBIRD 13G",
        "group": "eutelsat",
        "lat": 0.0036720784224626313,
        "lon": 75.6997899147525,
        "alt_km": 35787.880190118325,
        "timestamp": "2025-12-13T22:39:29.380144+00:00",
        "meta_object_name": "EUTELSAT HOTBIRD 13G",
        "meta_object_id": "2022-146A",
        "meta_epoch": "2025-12-13T04:57:05.616000",
        "meta_mean_motion": 1.00270754,
        "meta_eccentricity": 0.00017587,
        "meta_inclination": 0.0481,
        "meta_ra_of_asc_node": 233.9548,
        "meta_arg_of_pericenter": 303.9875,
        "meta_mean_anomaly": 351.4617,
        "meta_ephemeris_type": 0,
        "meta_classification_type": "U",
        "meta_norad_cat_id": 54225,
        "meta_element_set_no": 999,
        "meta_rev_at_epoch": 560,
        "meta_bstar": 0,
        "meta_mean_motion_dot": 1.01e-06,
        "meta_mean_motion_ddot": 0,
        "tle_line1": "1 54225U 22146A   25347.20631500  .00000101  00000+0  00000+0 0  9991",
        "tle_line2": "2 54225   0.0481 233.9548 0001758 303.9875 351.4617  1.00270754  5607"
      },
      "geometry": {
        "type": "Point",
        "coordinates": [
          75.6997899147525,
          0.0036720784224626313
        ]
      }
    }
  ]
}